[
  {
    "OBJECT_NAME": "STARLINK-1464",
    "OBJECT_ID": "20038X",
    "EPOCH": "2025-11-11T04:52:12.542016",
    "MEAN_MOTION": 15.0640599,
    "ECCENTRICITY": 0.000113,
    "INCLINATION": 53.0561,
    "RA_OF_ASC_NODE": 28.5269,
    "ARG_OF_PERICENTER": 66.6734,
    "MEAN_ANOMALY": 293.4374,
    "EPHEMERIS_TYPE": 0,
    "CLASSIFICATION_TYPE": "U",
    "NORAD_CAT_ID": 45751,
    "ELEMENT_SET_NO": 999,
    "REV_AT_EPOCH": 29862,
    "BSTAR": 5.1419000000000004e-05,
    "MEAN_MOTION_DOT": 4.85e-06,
    "MEAN_MOTION_DDOT": 0.0,
    "TLE_LINE1": "1 45751U 20038X   25315.20292294  .00000485  00000+0  51419-4 0  9991",
    "TLE_LINE2": "2 45751  53.0561  28.5269 0001130  66.6734 293.4374 15.06405990298621",
    "COMMENT": "Grouped by shell and plane from TLE"
  },
  {
    "OBJECT_NAME": "STARLINK-1477",
    "OBJECT_ID": "20038AA",
    "EPOCH": "2025-11-11T05:06:36.140256",
    "MEAN_MOTION": 15.07382178,
    "ECCENTRICITY": 0.0002318,
    "INCLINATION": 53.0548,
    "RA_OF_ASC_NODE": 28.4296,
    "ARG_OF_PERICENTER": 25.1883,
    "MEAN_ANOMALY": 334.9219,
    "EPHEMERIS_TYPE": 0,
    "CLASSIFICATION_TYPE": "U",
    "NORAD_CAT_ID": 45754,
    "ELEMENT_SET_NO": 999,
    "REV_AT_EPOCH": 29862,
    "BSTAR": 0.0016539999999999999,
    "MEAN_MOTION_DOT": 0.00025108,
    "MEAN_MOTION_DDOT": 0.0,
    "TLE_LINE1": "1 45754U 20038AA  25315.21291829  .00025108  00000+0  16540-2 0  9991",
    "TLE_LINE2": "2 45754  53.0548  28.4296 0002318  25.1883 334.9219 15.07382178298624",
    "COMMENT": "Grouped by shell and plane from TLE"
  },
  {
    "OBJECT_NAME": "STARLINK-1478",
    "OBJECT_ID": "20038AB",
    "EPOCH": "2025-11-11T05:39:58.592448",
    "MEAN_MOTION": 15.06404667,
    "ECCENTRICITY": 9.82e-05,
    "INCLINATION": 53.0539,
    "RA_OF_ASC_NODE": 28.3764,
    "ARG_OF_PERICENTER": 73.8096,
    "MEAN_ANOMALY": 286.3001,
    "EPHEMERIS_TYPE": 0,
    "CLASSIFICATION_TYPE": "U",
    "NORAD_CAT_ID": 45755,
    "ELEMENT_SET_NO": 999,
    "REV_AT_EPOCH": 29861,
    "BSTAR": 0.00028028,
    "MEAN_MOTION_DOT": 3.896e-05,
    "MEAN_MOTION_DDOT": 0.0,
    "TLE_LINE1": "1 45755U 20038AB  25315.23609482  .00003896  00000+0  28028-3 0  9997",
    "TLE_LINE2": "2 45755  53.0539  28.3764 0000982  73.8096 286.3001 15.06404667298610",
    "COMMENT": "Grouped by shell and plane from TLE"
  },
  {
    "OBJECT_NAME": "STARLINK-1493",
    "OBJECT_ID": "20038AF",
    "EPOCH": "2025-11-11T05:24:03.483648",
    "MEAN_MOTION": 15.06403518,
    "ECCENTRICITY": 0.0001224,
    "INCLINATION": 53.0546,
    "RA_OF_ASC_NODE": 28.4254,
    "ARG_OF_PERICENTER": 87.7175,
    "MEAN_ANOMALY": 272.3955,
    "EPHEMERIS_TYPE": 0,
    "CLASSIFICATION_TYPE": "U",
    "NORAD_CAT_ID": 45759,
    "ELEMENT_SET_NO": 999,
    "REV_AT_EPOCH": 29861,
    "BSTAR": 0.00018663,
    "MEAN_MOTION_DOT": 2.5e-05,
    "MEAN_MOTION_DDOT": 0.0,
    "TLE_LINE1": "1 45759U 20038AF  25315.22504032  .00002500  00000+0  18663-3 0  9990",
    "TLE_LINE2": "2 45759  53.0546  28.4254 0001224  87.7175 272.3955 15.06403518298616",
    "COMMENT": "Grouped by shell and plane from TLE"
  },
  {
    "OBJECT_NAME": "STARLINK-2140",
    "OBJECT_ID": "21017J",
    "EPOCH": "2025-11-11T05:34:40.287936",
    "MEAN_MOTION": 15.06400867,
    "ECCENTRICITY": 7.56e-05,
    "INCLINATION": 53.0556,
    "RA_OF_ASC_NODE": 28.4046,
    "ARG_OF_PERICENTER": 44.5437,
    "MEAN_ANOMALY": 315.5612,
    "EPHEMERIS_TYPE": 0,
    "CLASSIFICATION_TYPE": "U",
    "NORAD_CAT_ID": 47730,
    "ELEMENT_SET_NO": 999,
    "REV_AT_EPOCH": 25980,
    "BSTAR": 0.00010812,
    "MEAN_MOTION_DOT": 1.33e-05,
    "MEAN_MOTION_DDOT": 0.0,
    "TLE_LINE1": "1 47730U 21017J   25315.23241074  .00001330  00000+0  10812-3 0  9992",
    "TLE_LINE2": "2 47730  53.0556  28.4046 0000756  44.5437 315.5612 15.06400867259800",
    "COMMENT": "Grouped by shell and plane from TLE"
  },
  {
    "OBJECT_NAME": "STARLINK-2141",
    "OBJECT_ID": "21017K",
    "EPOCH": "2025-11-11T04:07:46.168896",
    "MEAN_MOTION": 15.06399339,
    "ECCENTRICITY": 0.0001259,
    "INCLINATION": 53.0558,
    "RA_OF_ASC_NODE": 23.6645,
    "ARG_OF_PERICENTER": 84.2301,
    "MEAN_ANOMALY": 275.8832,
    "EPHEMERIS_TYPE": 0,
    "CLASSIFICATION_TYPE": "U",
    "NORAD_CAT_ID": 47731,
    "ELEMENT_SET_NO": 999,
    "REV_AT_EPOCH": 25987,
    "BSTAR": 0.00020859,
    "MEAN_MOTION_DOT": 2.827e-05,
    "MEAN_MOTION_DDOT": 0.0,
    "TLE_LINE1": "1 47731U 21017K   25315.17206214  .00002827  00000+0  20859-3 0  9997",
    "TLE_LINE2": "2 47731  53.0558  23.6645 0001259  84.2301 275.8832 15.06399339259875",
    "COMMENT": "Grouped by shell and plane from TLE"
  },
  {
    "OBJECT_NAME": "STARLINK-2144",
    "OBJECT_ID": "21017N",
    "EPOCH": "2025-11-11T04:18:22.228416",
    "MEAN_MOTION": 15.06387572,
    "ECCENTRICITY": 0.000162,
    "INCLINATION": 53.0562,
    "RA_OF_ASC_NODE": 23.6302,
    "ARG_OF_PERICENTER": 98.211,
    "MEAN_ANOMALY": 261.9062,
    "EPHEMERIS_TYPE": 0,
    "CLASSIFICATION_TYPE": "U",
    "NORAD_CAT_ID": 47734,
    "ELEMENT_SET_NO": 999,
    "REV_AT_EPOCH": 25988,
    "BSTAR": 4.113200000000001e-06,
    "MEAN_MOTION_DOT": -2.2e-06,
    "MEAN_MOTION_DDOT": 0.0,
    "TLE_LINE1": "1 47734U 21017N   25315.17942394 -.00000220  00000+0  41132-5 0  9991",
    "TLE_LINE2": "2 47734  53.0562  23.6302 0001620  98.2110 261.9062 15.06387572259886",
    "COMMENT": "Grouped by shell and plane from TLE"
  },
  {
    "OBJECT_NAME": "STARLINK-2159",
    "OBJECT_ID": "21017Z",
    "EPOCH": "2025-11-11T04:23:40.445664",
    "MEAN_MOTION": 15.06406604,
    "ECCENTRICITY": 0.00015,
    "INCLINATION": 53.0543,
    "RA_OF_ASC_NODE": 23.618,
    "ARG_OF_PERICENTER": 80.7879,
    "MEAN_ANOMALY": 279.328,
    "EPHEMERIS_TYPE": 0,
    "CLASSIFICATION_TYPE": "U",
    "NORAD_CAT_ID": 47745,
    "ELEMENT_SET_NO": 999,
    "REV_AT_EPOCH": 25986,
    "BSTAR": 0.00050288,
    "MEAN_MOTION_DOT": 7.218e-05,
    "MEAN_MOTION_DDOT": 0.0,
    "TLE_LINE1": "1 47745U 21017Z   25315.18310701  .00007218  00000+0  50288-3 0  9998",
    "TLE_LINE2": "2 47745  53.0543  23.6180 0001500  80.7879 279.3280 15.06406604259867",
    "COMMENT": "Grouped by shell and plane from TLE"
  },
  {
    "OBJECT_NAME": "STARLINK-2160",
    "OBJECT_ID": "21017AA",
    "EPOCH": "2025-11-11T04:13:04.404288",
    "MEAN_MOTION": 15.06409525,
    "ECCENTRICITY": 0.0001395,
    "INCLINATION": 53.0551,
    "RA_OF_ASC_NODE": 23.6481,
    "ARG_OF_PERICENTER": 85.2615,
    "MEAN_ANOMALY": 274.8533,
    "EPHEMERIS_TYPE": 0,
    "CLASSIFICATION_TYPE": "U",
    "NORAD_CAT_ID": 47746,
    "ELEMENT_SET_NO": 999,
    "REV_AT_EPOCH": 25985,
    "BSTAR": 0.00036594,
    "MEAN_MOTION_DOT": 5.175e-05,
    "MEAN_MOTION_DDOT": 0.0,
    "TLE_LINE1": "1 47746U 21017AA  25315.17574542  .00005175  00000+0  36594-3 0  9997",
    "TLE_LINE2": "2 47746  53.0551  23.6481 0001395  85.2615 274.8533 15.06409525259856",
    "COMMENT": "Grouped by shell and plane from TLE"
  },
  {
    "OBJECT_NAME": "STARLINK-2170",
    "OBJECT_ID": "21017AH",
    "EPOCH": "2025-11-11T04:44:54.884544",
    "MEAN_MOTION": 15.06414364,
    "ECCENTRICITY": 0.0001436,
    "INCLINATION": 53.0549,
    "RA_OF_ASC_NODE": 23.5485,
    "ARG_OF_PERICENTER": 74.1507,
    "MEAN_ANOMALY": 285.964,
    "EPHEMERIS_TYPE": 0,
    "CLASSIFICATION_TYPE": "U",
    "NORAD_CAT_ID": 47753,
    "ELEMENT_SET_NO": 999,
    "REV_AT_EPOCH": 25991,
    "BSTAR": 0.00023101,
    "MEAN_MOTION_DOT": 3.162e-05,
    "MEAN_MOTION_DDOT": 0.0,
    "TLE_LINE1": "1 47753U 21017AH  25315.19785746  .00003162  00000+0  23101-3 0  9991",
    "TLE_LINE2": "2 47753  53.0549  23.5485 0001436  74.1507 285.9640 15.06414364259913",
    "COMMENT": "Grouped by shell and plane from TLE"
  },
  {
    "OBJECT_NAME": "STARLINK-2185",
    "OBJECT_ID": "21017AX",
    "EPOCH": "2025-11-11T04:50:13.202880",
    "MEAN_MOTION": 15.06408765,
    "ECCENTRICITY": 0.0001408,
    "INCLINATION": 53.0556,
    "RA_OF_ASC_NODE": 23.5319,
    "ARG_OF_PERICENTER": 92.0028,
    "MEAN_ANOMALY": 268.1123,
    "EPHEMERIS_TYPE": 0,
    "CLASSIFICATION_TYPE": "U",
    "NORAD_CAT_ID": 47767,
    "ELEMENT_SET_NO": 999,
    "REV_AT_EPOCH": 25992,
    "BSTAR": 0.00017886,
    "MEAN_MOTION_DOT": 2.384e-05,
    "MEAN_MOTION_DDOT": 0.0,
    "TLE_LINE1": "1 47767U 21017AX  25315.20154170  .00002384  00000+0  17886-3 0  9997",
    "TLE_LINE2": "2 47767  53.0556  23.5319 0001408  92.0028 268.1123 15.06408765259926",
    "COMMENT": "Grouped by shell and plane from TLE"
  },
  {
    "OBJECT_NAME": "STARLINK-2193",
    "OBJECT_ID": "21017BA",
    "EPOCH": "2025-11-10T11:06:40.987296",
    "MEAN_MOTION": 15.06425347,
    "ECCENTRICITY": 0.000136,
    "INCLINATION": 53.0564,
    "RA_OF_ASC_NODE": 21.8501,
    "ARG_OF_PERICENTER": 79.5425,
    "MEAN_ANOMALY": 280.5717,
    "EPHEMERIS_TYPE": 0,
    "CLASSIFICATION_TYPE": "U",
    "NORAD_CAT_ID": 47770,
    "ELEMENT_SET_NO": 999,
    "REV_AT_EPOCH": 25985,
    "BSTAR": 0.0006355499999999999,
    "MEAN_MOTION_DOT": 9.204e-05,
    "MEAN_MOTION_DDOT": 0.0,
    "TLE_LINE1": "1 47770U 21017BA  25314.46297439  .00009204  00000+0  63555-3 0  9996",
    "TLE_LINE2": "2 47770  53.0564  21.8501 0001360  79.5425 280.5717 15.06425347259855",
    "COMMENT": "Grouped by shell and plane from TLE"
  },
  {
    "OBJECT_NAME": "STARLINK-2209",
    "OBJECT_ID": "21017BG",
    "EPOCH": "2025-11-11T05:22:04.229184",
    "MEAN_MOTION": 15.06392092,
    "ECCENTRICITY": 7.87e-05,
    "INCLINATION": 53.0553,
    "RA_OF_ASC_NODE": 23.4306,
    "ARG_OF_PERICENTER": 21.8613,
    "MEAN_ANOMALY": 338.2409,
    "EPHEMERIS_TYPE": 0,
    "CLASSIFICATION_TYPE": "U",
    "NORAD_CAT_ID": 47776,
    "ELEMENT_SET_NO": 999,
    "REV_AT_EPOCH": 25989,
    "BSTAR": 0.00018001,
    "MEAN_MOTION_DOT": 2.4e-05,
    "MEAN_MOTION_DDOT": 0.0,
    "TLE_LINE1": "1 47776U 21017BG  25315.22366006  .00002400  00000+0  18001-3 0  9991",
    "TLE_LINE2": "2 47776  53.0553  23.4306 0000787  21.8613 338.2409 15.06392092259894",
    "COMMENT": "Grouped by shell and plane from TLE"
  }
]